{"type": "FeatureCollection", "features": [ {"type": "Feature", "properties": {"norad_id": 29930, "name": "FENGYUN 1C DEB", "group": "fengyun-1c-debris", "lat": -63.75304073842494, "lon": -115.21007924593778, "alt_km": 900.1220936164545, "timestamp": "2025-12-09T18:55:17.504299+00:00", "meta": {"OBJECT_NAME": "FENGYUN 1C DEB", "OBJECT_ID": "1999-025JC", "EPOCH": "2025-12-09T06:15:47.330208", "MEAN_MOTION": 14.20811196, "ECCENTRICITY": 0.0164623, "INCLINATION": 99.0445, "RA_OF_ASC_NODE": 225.4035, "ARG_OF_PERICENTER": 63.4536, "MEAN_ANOMALY": 56.587, "EPHEMERIS_TYPE": 0, "CLASSIFICATION_TYPE": "U", "NORAD_CAT_ID": 29930, "ELEMENT_SET_NO": 999, "REV_AT_EPOCH": 97841, "BSTAR": 0.0003949, "MEAN_MOTION_DOT": 9.32e-06, "MEAN_MOTION_DDOT": 0}, "tle": {"line1": "1 29930U 99025JC  25343.26096447  .00000932  00000+0  39490-3 0  9994", "line2": "2 29930  99.0445 225.4035 0164623  63.4536  56.5870 14.20811196978419"}}, "geometry": {"type": "Point", "coordinates": [-115.21007924593778, -63.75304073842494]}}, {"type": "Feature", "properties": {"norad_id": 29931, "name": "FENGYUN 1C DEB", "group": "fengyun-1c-debris", "lat": 60.97455464776647, "lon": -144.50286827333147, "alt_km": 851.6164664027283, "timestamp": "2025-12-09T18:55:17.504309+00:00", "meta": {"OBJECT_NAME": "FENGYUN 1C DEB", "OBJECT_ID": "1999-025JD", "EPOCH": "2025-12-09T01:31:19.968384", "MEAN_MOTION": 14.03889532, "ECCENTRICITY": 0.00326322, "INCLINATION": 98.8598, "RA_OF_ASC_NODE": 18.4652, "ARG_OF_PERICENTER": 103.6464, "MEAN_ANOMALY": 311.9683, "EPHEMERIS_TYPE": 0, "CLASSIFICATION_TYPE": "U", "NORAD_CAT_ID": 29931, "ELEMENT_SET_NO": 999, "REV_AT_EPOCH": 96761, "BSTAR": 0.00018994956, "MEAN_MOTION_DOT": 2.58e-06, "MEAN_MOTION_DDOT": 0}, "tle": {"line1": "1 29931U 99025JD  25343.06342556  .00000258  00000+0  18995-3 0  9996", "line2": "2 29931  98.8598  18.4652 0032632 103.6464 311.9683 14.03889532967612"}}, "geometry": {"type": "Point", "coordinates": [-144.50286827333147, 60.97455464776647]}}, {"type": "Feature", "properties": {"norad_id": 29932, "name": "FENGYUN 1C DEB", "group": "fengyun-1c-debris", "lat": 71.39673171068586, "lon": -32.27275444276861, "alt_km": 801.6616589720143, "timestamp": "2025-12-09T18:55:17.504320+00:00", "meta": {"OBJECT_NAME": "FENGYUN 1C DEB", "OBJECT_ID": "1999-025JE", "EPOCH": "2025-12-08T07:04:36.613344", "MEAN_MOTION": 14.16755357, "ECCENTRICITY": 0.0038621, "INCLINATION": 98.6342, "RA_OF_ASC_NODE": 353.1117, "ARG_OF_PERICENTER": 82.8541, "MEAN_ANOMALY": 297.4832, "EPHEMERIS_TYPE": 0, "CLASSIFICATION_TYPE": "U", "NORAD_CAT_ID": 29932, "ELEMENT_SET_NO": 999, "REV_AT_EPOCH": 97521, "BSTAR": 0.00050621811, "MEAN_MOTION_DOT": 9.78e-06, "MEAN_MOTION_DDOT": 0}, "tle": {"line1": "1 29932U 99025JE  25342.29486821  .00000978  00000+0  50622-3 0  9997", "line2": "2 29932  98.6342 353.1117 0038621  82.8541 297.4832 14.16755357975211"}}, "geometry": {"type": "Point", "coordinates": [-32.27275444276861, 71.39673171068586]}}, {"type": "Feature", "properties": {"norad_id": 29933, "name": "FENGYUN 1C DEB", "group": "fengyun-1c-debris", "lat": -7.832747526017816, "lon": 88.01159808694764, "alt_km": 675.899184250814, "timestamp": "2025-12-09T18:55:17.504330+00:00", "meta": {"OBJECT_NAME": "FENGYUN 1C DEB", "OBJECT_ID": "1999-025JF", "EPOCH": "2025-12-09T06:05:43.421856", "MEAN_MOTION": 14.65673612, "ECCENTRICITY": 0.0004133, "INCLINATION": 98.7494, "RA_OF_ASC_NODE": 86.2289, "ARG_OF_PERICENTER": 342.4419, "MEAN_ANOMALY": 71.5331, "EPHEMERIS_TYPE": 0, "CLASSIFICATION_TYPE": "U", "NORAD_CAT_ID": 29933, "ELEMENT_SET_NO": 999, "REV_AT_EPOCH": 98454, "BSTAR": 0.0048598, "MEAN_MOTION_DOT": 0.00026484, "MEAN_MOTION_DDOT": 0}, "tle": {"line1": "1 29933U 99025JF  25343.25397479  .00026484  00000+0  48598-2 0  9993", "line2": "2 29933  98.7494  86.2289 0004133 342.4419  71.5331 14.65673612984543"}}, "geometry": {"type": "Point", "coordinates": [88.01159808694764, -7.832747526017816]}}, {"type": "Feature", "properties": {"norad_id": 29934, "name": "FENGYUN 1C DEB", "group": "fengyun-1c-debris", "lat": -54.5798277445571, "lon": 43.15326479905708, "alt_km": 635.9133685019788, "timestamp": "2025-12-09T18:55:17.504340+00:00", "meta": {"OBJECT_NAME": "FENGYUN 1C DEB", "OBJECT_ID": "1999-025JG", "EPOCH": "2025-12-09T09:19:47.340768", "MEAN_MOTION": 14.63738287, "ECCENTRICITY": 0.0100604, "INCLINATION": 98.904, "RA_OF_ASC_NODE": 29.9872, "ARG_OF_PERICENTER": 262.6284, "MEAN_ANOMALY": 96.3474, "EPHEMERIS_TYPE": 0, "CLASSIFICATION_TYPE": "U", "NORAD_CAT_ID": 29934, "ELEMENT_SET_NO": 999, "REV_AT_EPOCH": 99723, "BSTAR": 0.0012527071, "MEAN_MOTION_DOT": 6.969e-05, "MEAN_MOTION_DDOT": 0}, "tle": {"line1": "1 29934U 99025JG  25343.38874237  .00006969  00000+0  12527-2 0  9999", "line2": "2 29934  98.9040  29.9872 0100604 262.6284  96.3474 14.63738287997239"}}, "geometry": {"type": "Point", "coordinates": [43.15326479905708, -54.5798277445571]}}, {"type": "Feature", "properties": {"norad_id": 29935, "name": "FENGYUN 1C DEB", "group": "fengyun-1c-debris", "lat": -53.81634699531482, "lon": -145.60158122959666, "alt_km": 745.0856985338323, "timestamp": "2025-12-09T18:55:17.504351+00:00", "meta": {"OBJECT_NAME": "FENGYUN 1C DEB", "OBJECT_ID": "1999-025JH", "EPOCH": "2025-12-09T04:31:57.929952", "MEAN_MOTION": 14.1423514, "ECCENTRICITY": 0.01500226, "INCLINATION": 98.4619, "RA_OF_ASC_NODE": 45.5732, "ARG_OF_PERICENTER": 226.3913, "MEAN_ANOMALY": 197.287, "EPHEMERIS_TYPE": 0, "CLASSIFICATION_TYPE": "U", "NORAD_CAT_ID": 29935, "ELEMENT_SET_NO": 999, "REV_AT_EPOCH": 97492, "BSTAR": 0.00017468497, "MEAN_MOTION_DOT": 3.3e-06, "MEAN_MOTION_DDOT": 0}, "tle": {"line1": "1 29935U 99025JH  25343.18886493  .00000330  00000+0  17468-3 0  9991", "line2": "2 29935  98.4619  45.5732 0150022 226.3913 197.2870 14.14235140974929"}}, "geometry": {"type": "Point", "coordinates": [-145.60158122959666, -53.81634699531482]}}, {"type": "Feature", "properties": {"norad_id": 29936, "name": "FENGYUN 1C DEB", "group": "fengyun-1c-debris", "lat": 48.24237729849603, "lon": 87.33439479226068, "alt_km": 837.4830548989503, "timestamp": "2025-12-09T18:55:17.504361+00:00", "meta": {"OBJECT_NAME": "FENGYUN 1C DEB", "OBJECT_ID": "1999-025JJ", "EPOCH": "2025-12-09T13:40:11.223840", "MEAN_MOTION": 14.35305936, "ECCENTRICITY": 0.01138145, "INCLINATION": 98.6562, "RA_OF_ASC_NODE": 96.9396, "ARG_OF_PERICENTER": 196.4333, "MEAN_ANOMALY": 163.3151, "EPHEMERIS_TYPE": 0, "CLASSIFICATION_TYPE": "U", "NORAD_CAT_ID": 29936, "ELEMENT_SET_NO": 999, "REV_AT_EPOCH": 98885, "BSTAR": 0.00039148755, "MEAN_MOTION_DOT": 1.16e-05, "MEAN_MOTION_DDOT": 0}, "tle": {"line1": "1 29936U 99025JJ  25343.56957435  .00001160  00000+0  39149-3 0  9991", "line2": "2 29936  98.6562  96.9396 0113814 196.4333 163.3151 14.35305936988853"}}, "geometry": {"type": "Point", "coordinates": [87.33439479226068, 48.24237729849603]}}, {"type": "Feature", "properties": {"norad_id": 29937, "name": "FENGYUN 1C DEB", "group": "fengyun-1c-debris", "lat": 60.028225882837475, "lon": -159.51781620058588, "alt_km": 872.3658401780331, "timestamp": "2025-12-09T18:55:17.504371+00:00", "meta": {"OBJECT_NAME": "FENGYUN 1C DEB", "OBJECT_ID": "1999-025JK", "EPOCH": "2025-12-09T12:18:31.400352", "MEAN_MOTION": 14.04360761, "ECCENTRICITY": 0.00324797, "INCLINATION": 98.8032, "RA_OF_ASC_NODE": 4.6277, "ARG_OF_PERICENTER": 30.5207, "MEAN_ANOMALY": 135.5761, "EPHEMERIS_TYPE": 0, "CLASSIFICATION_TYPE": "U", "NORAD_CAT_ID": 29937, "ELEMENT_SET_NO": 999, "REV_AT_EPOCH": 96890, "BSTAR": 0.00014518603, "MEAN_MOTION_DOT": 1.89e-06, "MEAN_MOTION_DDOT": 0}, "tle": {"line1": "1 29937U 99025JK  25343.51286343  .00000189  00000+0  14519-3 0  9994", "line2": "2 29937  98.8032   4.6277 0032479  30.5207 135.5761 14.04360761968902"}}, "geometry": {"type": "Point", "coordinates": [-159.51781620058588, 60.028225882837475]}}, {"type": "Feature", "properties": {"norad_id": 29938, "name": "FENGYUN 1C DEB", "group": "fengyun-1c-debris", "lat": 11.331475434459836, "lon": -27.901138305983793, "alt_km": 854.7263081021993, "timestamp": "2025-12-09T18:55:17.504381+00:00", "meta": {"OBJECT_NAME": "FENGYUN 1C DEB", "OBJECT_ID": "1999-025JL", "EPOCH": "2025-12-09T11:03:29.588832", "MEAN_MOTION": 14.07455432, "ECCENTRICITY": 0.00329989, "INCLINATION": 98.8021, "RA_OF_ASC_NODE": 333.559, "ARG_OF_PERICENTER": 320.1961, "MEAN_ANOMALY": 191.9191, "EPHEMERIS_TYPE": 0, "CLASSIFICATION_TYPE": "U", "NORAD_CAT_ID": 29938, "ELEMENT_SET_NO": 999, "REV_AT_EPOCH": 97010, "BSTAR": 0.00023067616, "MEAN_MOTION_DOT": 3.47e-06, "MEAN_MOTION_DDOT": 0}, "tle": {"line1": "1 29938U 99025JL  25343.46075913  .00000347  00000+0  23068-3 0  9993", "line2": "2 29938  98.8021 333.5590 0032998 320.1961 191.9191 14.07455432970105"}}, "geometry": {"type": "Point", "coordinates": [-27.901138305983793, 11.331475434459836]}}, {"type": "Feature", "properties": {"norad_id": 29939, "name": "FENGYUN 1C DEB", "group": "fengyun-1c-debris", "lat": -46.336442941286094, "lon": -7.29714333766634, "alt_km": 905.8828483973348, "timestamp": "2025-12-09T18:55:17.504392+00:00", "meta": {"OBJECT_NAME": "FENGYUN 1C DEB", "OBJECT_ID": "1999-025JM", "EPOCH": "2025-12-09T12:53:28.878720", "MEAN_MOTION": 14.12083779, "ECCENTRICITY": 0.00668186, "INCLINATION": 98.7097, "RA_OF_ASC_NODE": 343.2162, "ARG_OF_PERICENTER": 147.5642, "MEAN_ANOMALY": 328.7432, "EPHEMERIS_TYPE": 0, "CLASSIFICATION_TYPE": "U", "NORAD_CAT_ID": 29939, "ELEMENT_SET_NO": 999, "REV_AT_EPOCH": 97415, "BSTAR": 9.8954474e-05, "MEAN_MOTION_DOT": 1.43e-06, "MEAN_MOTION_DDOT": 0}, "tle": {"line1": "1 29939U 99025JM  25343.53713980  .00000143  00000+0  98954-4 0  9996", "line2": "2 29939  98.7097 343.2162 0066818 147.5642 328.7432 14.12083779974150"}}, "geometry": {"type": "Point", "coordinates": [-7.29714333766634, -46.336442941286094]}}]}